start=new Date('2022-12-12T00:00:00.000Z').valueOf();
sats=[{"OBJECT_ID":"2022-076AE","TIME_SYSTEM":"UTC","TLE_LINE1":"1 53014U 22076AE  22345.46869762  .00001197  00000-0  93258-4 0  9993","SITE":"AFETR","TLE_LINE2":"2 53014  53.2178   0.2901 0001758  41.3340 318.7785 15.08846167 24202","MEAN_MOTION":"15.08846167","APOAPSIS":"540.943","ELEMENT_SET_NO":"999","EPHEMERIS_TYPE":"0","ECCENTRICITY":"0.00017580","PERIAPSIS":"538.510","OBJECT_NAME":"STARLINK-4183","REF_FRAME":"TEME","INCLINATION":"53.2178","CENTER_NAME":"EARTH","BSTAR":"0.00009325800000","LAUNCH_DATE":"2022-07-07","MEAN_MOTION_DDOT":"0.0000000000000","EPOCH":"2022-12-11T11:14:55.474368","GP_ID":"220056147","SEMIMAJOR_AXIS":"6917.862","CLASSIFICATION_TYPE":"U","OBJECT_TYPE":"PAYLOAD","MEAN_ELEMENT_THEORY":"SGP4","FILE":"3691213","DECAY_DATE":null,"RA_OF_ASC_NODE":"0.2901","COUNTRY_CODE":"US","PERIOD":"95.437","NORAD_CAT_ID":"53014","MEAN_MOTION_DOT":"0.00001197","REV_AT_EPOCH":"2420","ARG_OF_PERICENTER":"41.3340","RCS_SIZE":"LARGE","MEAN_ANOMALY":"318.7785"},{"OBJECT_ID":"2022-076AF","TIME_SYSTEM":"UTC","TLE_LINE1":"1 53015U 22076AF  22345.31413241  .00007734  00000-0  50374-3 0  9999","SITE":"AFETR","TLE_LINE2":"2 53015  53.2194   0.9967 0002022   6.2036 353.8981 15.08819180 24187","MEAN_MOTION":"15.08819180","ELEMENT_SET_NO":"999","APOAPSIS":"541.208","EPHEMERIS_TYPE":"0","PERIAPSIS":"538.410","ECCENTRICITY":"0.00020220","OBJECT_NAME":"STARLINK-4262","REF_FRAME":"TEME","INCLINATION":"53.2194","CENTER_NAME":"EARTH","EPOCH":"2022-12-11T07:32:21.040224","LAUNCH_DATE":"2022-07-07","MEAN_MOTION_DDOT":"0.0000000000000","BSTAR":"0.00050374000000","GP_ID":"220054397","SEMIMAJOR_AXIS":"6917.944","CLASSIFICATION_TYPE":"U","OBJECT_TYPE":"PAYLOAD","MEAN_ELEMENT_THEORY":"SGP4","FILE":"3691213","DECAY_DATE":null,"RA_OF_ASC_NODE":"0.9967","PERIOD":"95.439","COUNTRY_CODE":"US","MEAN_MOTION_DOT":"0.00007734","NORAD_CAT_ID":"53015","ARG_OF_PERICENTER":"6.2036","REV_AT_EPOCH":"2418","RCS_SIZE":"LARGE","MEAN_ANOMALY":"353.8981"},{"RA_OF_ASC_NODE":"0.0619","PERIOD":"95.436","COUNTRY_CODE":"US","NORAD_CAT_ID":"53016","MEAN_MOTION_DOT":"-0.00007521","ARG_OF_PERICENTER":"318.4314","REV_AT_EPOCH":"2421","RCS_SIZE":"LARGE","MEAN_ANOMALY":"41.6381","LAUNCH_DATE":"2022-07-07","EPOCH":"2022-12-11T12:34:23.253600","MEAN_MOTION_DDOT":"0.0000000000000","BSTAR":"-0.00045449000000","GP_ID":"220054647","CLASSIFICATION_TYPE":"U","SEMIMAJOR_AXIS":"6917.802","OBJECT_TYPE":"PAYLOAD","MEAN_ELEMENT_THEORY":"SGP4","FILE":"3691213","DECAY_DATE":null,"PERIAPSIS":"536.967","ECCENTRICITY":"0.00039030","OBJECT_NAME":"STARLINK-4283","REF_FRAME":"TEME","INCLINATION":"53.2196","CENTER_NAME":"EARTH","OBJECT_ID":"2022-076AG","TIME_SYSTEM":"UTC","TLE_LINE1":"1 53016U 22076AG  22345.52388025 -.00007521  00000-0 -45449-3 0  9997","SITE":"AFETR","TLE_LINE2":"2 53016  53.2196   0.0619 0003903 318.4314  41.6381 15.08865559 24212","MEAN_MOTION":"15.08865559","ELEMENT_SET_NO":"999","APOAPSIS":"542.367","EPHEMERIS_TYPE":"0"},{"RCS_SIZE":"LARGE","REV_AT_EPOCH":"2424","ARG_OF_PERICENTER":"34.2771","MEAN_ANOMALY":"325.8410","RA_OF_ASC_NODE":"359.5253","NORAD_CAT_ID":"53017","MEAN_MOTION_DOT":"0.00003954","PERIOD":"95.438","COUNTRY_CODE":"US","OBJECT_TYPE":"PAYLOAD","CLASSIFICATION_TYPE":"U","SEMIMAJOR_AXIS":"6917.904","FILE":"3691993","DECAY_DATE":null,"MEAN_ELEMENT_THEORY":"SGP4","GP_ID":"220099532","LAUNCH_DATE":"2022-07-07","BSTAR":"0.00026643000000","MEAN_MOTION_DDOT":"0.0000000000000","EPOCH":"2022-12-11T15:23:59.355744","REF_FRAME":"TEME","INCLINATION":"53.2188","CENTER_NAME":"EARTH","ECCENTRICITY":"0.00029390","PERIAPSIS":"537.736","OBJECT_NAME":"STARLINK-4281","SITE":"AFETR","TLE_LINE2":"2 53017  53.2188 359.5253 0002939  34.2771 325.8410 15.08832112 24240","EPHEMERIS_TYPE":"0","MEAN_MOTION":"15.08832112","ELEMENT_SET_NO":"999","APOAPSIS":"541.803","TLE_LINE1":"1 53017U 22076AH  22345.64165921  .00003954  00000-0  26643-3 0  9998","OBJECT_ID":"2022-076AH","TIME_SYSTEM":"UTC"},{"CENTER_NAME":"EARTH","REF_FRAME":"TEME","INCLINATION":"53.2174","OBJECT_NAME":"STARLINK-4279","PERIAPSIS":"537.945","ECCENTRICITY":"0.00026050","MEAN_MOTION":"15.08839533","APOAPSIS":"541.549","ELEMENT_SET_NO":"999","EPHEMERIS_TYPE":"0","TLE_LINE2":"2 53018  53.2174   0.3678 0002605  35.0477 325.0686 15.08839533 24207","SITE":"AFETR","OBJECT_ID":"2022-076AJ","TIME_SYSTEM":"UTC","TLE_LINE1":"1 53018U 22076AJ  22345.45492865  .00003817  00000-0  25779-3 0  9995","MEAN_ANOMALY":"325.0686","ARG_OF_PERICENTER":"35.0477","REV_AT_EPOCH":"2420","RCS_SIZE":"LARGE","PERIOD":"95.438","COUNTRY_CODE":"US","MEAN_MOTION_DOT":"0.00003817","NORAD_CAT_ID":"53018","RA_OF_ASC_NODE":"0.3678","MEAN_ELEMENT_THEORY":"SGP4","FILE":"3691213","DECAY_DATE":null,"SEMIMAJOR_AXIS":"6917.882","CLASSIFICATION_TYPE":"U","OBJECT_TYPE":"PAYLOAD","LAUNCH_DATE":"2022-07-07","MEAN_MOTION_DDOT":"0.0000000000000","EPOCH":"2022-12-11T10:55:05.835360","BSTAR":"0.00025779000000","GP_ID":"220055648"},{"DECAY_DATE":null,"FILE":"3691213","MEAN_ELEMENT_THEORY":"SGP4","OBJECT_TYPE":"PAYLOAD","CLASSIFICATION_TYPE":"U","SEMIMAJOR_AXIS":"6917.882","GP_ID":"220054897","LAUNCH_DATE":"2022-07-07","BSTAR":"0.00016340000000","MEAN_MOTION_DDOT":"0.0000000000000","EPOCH":"2022-12-11T08:51:50.404032","MEAN_ANOMALY":"326.4438","RCS_SIZE":"LARGE","ARG_OF_PERICENTER":"33.6714","REV_AT_EPOCH":"2419","MEAN_MOTION_DOT":"0.00002313","NORAD_CAT_ID":"53019","PERIOD":"95.438","COUNTRY_CODE":"US","RA_OF_ASC_NODE":"0.7365","EPHEMERIS_TYPE":"0","APOAPSIS":"541.489","ELEMENT_SET_NO":"999","MEAN_MOTION":"15.08839340","SITE":"AFETR","TLE_LINE2":"2 53019  53.2197   0.7365 0002517  33.6714 326.4438 15.08839340 24194","TLE_LINE1":"1 53019U 22076AK  22345.36933338  .00002313  00000-0  16340-3 0  9995","TIME_SYSTEM":"UTC","OBJECT_ID":"2022-076AK","CENTER_NAME":"EARTH","INCLINATION":"53.2197","REF_FRAME":"TEME","OBJECT_NAME":"STARLINK-4282","PERIAPSIS":"538.006","ECCENTRICITY":"0.00025170"},{"TLE_LINE1":"1 53020U 22076AL  22345.51652971 -.00001910  00000-0 -10187-3 0  9992","TIME_SYSTEM":"UTC","OBJECT_ID":"2022-076AL","SITE":"AFETR","TLE_LINE2":"2 53020  53.2202   0.0853 0002530  26.1756 333.9364 15.08855465 24216","EPHEMERIS_TYPE":"0","APOAPSIS":"541.448","ELEMENT_SET_NO":"999","MEAN_MOTION":"15.08855465","ECCENTRICITY":"0.00025300","PERIAPSIS":"537.948","OBJECT_NAME":"STARLINK-4287","INCLINATION":"53.2202","REF_FRAME":"TEME","CENTER_NAME":"EARTH","GP_ID":"220055146","LAUNCH_DATE":"2022-07-07","BSTAR":"-0.00010187000000","MEAN_MOTION_DDOT":"0.0000000000000","EPOCH":"2022-12-11T12:23:48.166944","OBJECT_TYPE":"PAYLOAD","SEMIMAJOR_AXIS":"6917.833","CLASSIFICATION_TYPE":"U","DECAY_DATE":null,"FILE":"3691213","MEAN_ELEMENT_THEORY":"SGP4","RA_OF_ASC_NODE":"0.0853","MEAN_MOTION_DOT":"-0.00001910","NORAD_CAT_ID":"53020","PERIOD":"95.437","COUNTRY_CODE":"US","RCS_SIZE":"LARGE","REV_AT_EPOCH":"2421","ARG_OF_PERICENTER":"26.1756","MEAN_ANOMALY":"333.9364"},{"REF_FRAME":"TEME","INCLINATION":"53.2207","CENTER_NAME":"EARTH","ECCENTRICITY":"0.00020020","PERIAPSIS":"538.384","OBJECT_NAME":"STARLINK-4203","SITE":"AFETR","TLE_LINE2":"2 53021  53.2207 359.8748 0002002  38.4423 321.6712 15.08832357 24228","EPHEMERIS_TYPE":"0","MEAN_MOTION":"15.08832357","APOAPSIS":"541.154","ELEMENT_SET_NO":"999","TLE_LINE1":"1 53021U 22076AM  22345.56068652 -.00001572  00000-0 -80683-4 0  9998","OBJECT_ID":"2022-076AM","TIME_SYSTEM":"UTC","RCS_SIZE":"LARGE","ARG_OF_PERICENTER":"38.4423","REV_AT_EPOCH":"2422","MEAN_ANOMALY":"321.6712","RA_OF_ASC_NODE":"359.8748","NORAD_CAT_ID":"53021","MEAN_MOTION_DOT":"-0.00001572","COUNTRY_CODE":"US","PERIOD":"95.438","OBJECT_TYPE":"PAYLOAD","CLASSIFICATION_TYPE":"U","SEMIMAJOR_AXIS":"6917.904","FILE":"3691993","DECAY_DATE":null,"MEAN_ELEMENT_THEORY":"SGP4","GP_ID":"220100032","LAUNCH_DATE":"2022-07-07","MEAN_MOTION_DDOT":"0.0000000000000","EPOCH":"2022-12-11T13:27:23.315328","BSTAR":"-0.00008068300000"},{"FILE":"3691213","DECAY_DATE":null,"MEAN_ELEMENT_THEORY":"SGP4","OBJECT_TYPE":"PAYLOAD","CLASSIFICATION_TYPE":"U","SEMIMAJOR_AXIS":"6917.771","GP_ID":"220056148","LAUNCH_DATE":"2022-07-07","EPOCH":"2022-12-11T08:57:07.748640","MEAN_MOTION_DDOT":"0.0000000000000","BSTAR":"-0.00041453000000","MEAN_ANOMALY":"334.2513","RCS_SIZE":"LARGE","ARG_OF_PERICENTER":"25.8614","REV_AT_EPOCH":"2419","MEAN_MOTION_DOT":"-0.00006887","NORAD_CAT_ID":"53022","PERIOD":"95.435","COUNTRY_CODE":"US","RA_OF_ASC_NODE":"0.7258","EPHEMERIS_TYPE":"0","MEAN_MOTION":"15.08875944","APOAPSIS":"541.504","ELEMENT_SET_NO":"999","SITE":"AFETR","TLE_LINE2":"2 53022  53.2189   0.7258 0002701  25.8614 334.2513 15.08875944 24198","TLE_LINE1":"1 53022U 22076AN  22345.37300635 -.00006887  00000-0 -41453-3 0  9993","OBJECT_ID":"2022-076AN","TIME_SYSTEM":"UTC","CENTER_NAME":"EARTH","REF_FRAME":"TEME","INCLINATION":"53.2189","OBJECT_NAME":"STARLINK-4216","PERIAPSIS":"537.767","ECCENTRICITY":"0.00027010"},{"RA_OF_ASC_NODE":"1.0883","NORAD_CAT_ID":"53023","MEAN_MOTION_DOT":"0.00003092","COUNTRY_CODE":"US","PERIOD":"95.438","RCS_SIZE":"LARGE","REV_AT_EPOCH":"2465","ARG_OF_PERICENTER":"36.7750","MEAN_ANOMALY":"323.3373","GP_ID":"220071305","MEAN_MOTION_DDOT":"0.0000000000000","LAUNCH_DATE":"2022-07-07","BSTAR":"0.00021237000000","EPOCH":"2022-12-11T06:56:38.378112","OBJECT_TYPE":"PAYLOAD","CLASSIFICATION_TYPE":"U","SEMIMAJOR_AXIS":"6917.923","DECAY_DATE":null,"FILE":"3691845","MEAN_ELEMENT_THEORY":"SGP4","ECCENTRICITY":"0.00019070","PERIAPSIS":"538.469","OBJECT_NAME":"STARLINK-4284","INCLINATION":"53.2186","REF_FRAME":"TEME","CENTER_NAME":"EARTH","TLE_LINE1":"1 53023U 22076AP  22345.28933308  .00003092  00000-0  21237-3 0  9994","TIME_SYSTEM":"UTC","OBJECT_ID":"2022-076AP","SITE":"AFETR","TLE_LINE2":"2 53023  53.2186   1.0883 0001907  36.7750 323.3373 15.08826025 24653","EPHEMERIS_TYPE":"0","ELEMENT_SET_NO":"999","APOAPSIS":"541.107","MEAN_MOTION":"15.08826025"}];
